OBJECT_NAME,OBJECT_ID,EPOCH,MEAN_MOTION,ECCENTRICITY,INCLINATION,RA_OF_ASC_NODE,ARG_OF_PERICENTER,MEAN_ANOMALY,EPHEMERIS_TYPE,CLASSIFICATION_TYPE,NORAD_CAT_ID,ELEMENT_SET_NO,REV_AT_EPOCH,BSTAR,MEAN_MOTION_DOT,MEAN_MOTION_DDOT
CUTE-1 (CO-55),2003-031E,2026-06-25T23:00:28.348416,14.24340671,.00100671,98.6736,185.4073,153.3060,206.8639,0,U,27844,999,19292,.13912556E-3,.278E-5,0
CUBESAT XI-IV (CO-57),2003-031J,2026-06-25T22:50:11.464512,14.23625133,.00095908,98.6767,185.1059,171.2746,188.8601,0,U,27848,999,19262,.12262206E-3,.236E-5,0
CUBESAT XI-V,2005-043F,2026-06-26T17:04:07.248864,14.72655432,.0014302,98.2993,333.5333,170.4305,189.7177,0,U,28895,999,10315,.22252E-3,.1367E-4,0
CUTE-1.7+APD II (CO-65),2008-021C,2026-06-26T15:52:59.611584,15.09537507,.0008803,97.8273,159.2777,9.9021,350.2379,0,U,32785,999,98662,.29417E-3,.4656E-4,0
CANX-2,2008-021H,2026-06-26T11:01:35.169312,15.05681054,.0010836,97.8636,157.4177,23.8347,336.3379,0,U,32790,999,98620,.25015E-3,.3554E-4,0
SEEDS II (CO-66),2008-021J,2026-06-26T11:17:16.956096,15.33053587,.0000491,97.7516,175.8130,216.1627,143.9581,0,U,32791,999,98871,.59022E-3,.18788E-3,0
SWISSCUBE,2009-051B,2026-06-26T11:21:40.366368,14.62497638,.000664,98.4029,85.5233,172.3713,187.7590,0,U,35932,999,89051,.18915E-3,.909E-5,0
BEESAT-1,2009-051C,2026-06-26T16:37:56.368992,14.61734342,.0004848,98.3957,85.3622,183.3217,176.7952,0,U,35933,999,89057,.16076E-3,.752E-5,0
ITUPSAT1,2009-051E,2026-06-26T16:36:48.654720,14.60453570,.0006751,98.4042,84.5432,199.9772,160.1164,0,U,35935,999,89012,.15443E-3,.7E-5,0
TISAT 1,2010-035E,2026-06-26T14:07:44.189760,15.32050989,.0002718,98.0702,124.9738,151.9791,208.1596,0,U,36799,999,86914,.64968E-3,.2005E-3,0
AEROCUBE 4.5A,2012-048K,2026-06-25T21:46:56.954496,16.07344693,.00186927,64.6191,354.7123,248.7404,111.1768,0,U,38767,999,37405,.12854161E-2,.10443E-1,.62559159E-3
STRAND-1,2013-009E,2026-06-26T17:36:07.698816,14.37168557,.0008261,98.3924,357.7329,194.5261,165.5690,0,U,39090,999,69843,.10506E-3,.27E-5,0
BRITE-AUSTRIA,2013-009F,2026-06-26T18:00:36.886752,14.36545523,.0009615,98.3998,356.9495,205.4279,154.6436,0,U,39091,999,69842,.67536E-4,.156E-5,0
NEE-01 PEGASO,2013-018B,2026-06-25T08:54:48.053664,14.93700411,.001354,98.1231,320.7925,133.4455,226.7893,0,U,39151,999,71192,.23719E-3,.2452E-4,0
POPACS 2,2013-055E,2026-06-25T21:34:59.734272,14.91433941,.04164763,80.9906,134.2187,165.8045,195.5318,0,U,39269,999,66451,.28728265E-3,.17101E-3,0
POPACS 3,2013-055F,2026-06-26T12:46:59.988000,14.56288219,.0551198,81.0003,219.0538,41.5466,322.6276,0,U,39270,999,63991,.25217E-3,.10697E-3,0
ZACUBE-1 (TSHEPISOSAT),2013-066B,2026-06-26T11:20:07.652256,15.01236338,.0042084,97.8048,139.8569,216.0503,143.7882,0,U,39417,999,68212,.26519537E-3,.3406E-4,0
WNISAT-1,2013-066H,2026-06-26T09:46:04.146816,14.58079288,.01625336,97.7210,325.9093,202.3970,157.0079,0,U,39423,999,66807,.20976916E-3,.1108E-4,0
TRITON-1,2013-066M,2026-06-26T13:08:13.269120,14.81732342,.00890679,97.8241,87.1412,202.9453,156.7771,0,U,39427,999,67547,.16637054E-3,.1347E-4,0
GOMX-1,2013-066Q,2026-06-26T09:04:57.415584,14.69489682,.0129856,97.6486,17.2611,48.3749,312.8495,0,U,39430,999,67126,.29012575E-3,.1907E-4,0
CUBEBUG-2 (LO-74),2013-066AA,2026-06-26T13:47:56.921568,14.93834576,.00574718,97.8903,126.5929,358.0477,2.0509,0,U,39440,999,67839,.38862221E-3,.4199E-4,0
NEE-02 KRYSAOR,2013-066AB,2026-06-26T15:10:18.925536,14.86658230,.00671398,97.8892,116.7794,39.8736,320.7384,0,U,39441,999,67760,.29336049E-3,.2656E-4,0
FUNCUBE-1 (AO-73),2013-066AE,2026-06-26T11:15:52.506144,15.09592366,.00365873,97.8271,149.1091,169.4285,190.7721,0,U,39444,999,68106,.46910259E-3,.759E-4,0
UWE-3,2013-066AG,2026-06-25T20:06:32.092416,14.97092153,.00468075,97.8708,132.9703,291.8607,67.7640,0,U,39446,999,67887,.38106409E-3,.4431E-4,0
BRITE-CA1 (TORONTO),2014-033L,2026-06-26T14:49:50.498976,14.72690189,.0077328,97.9749,306.3725,246.2869,113.0213,0,U,40020,999,64360,.12727E-3,.796E-5,0
DUCHIFAT-1,2014-033M,2026-06-26T14:38:02.171040,15.66536146,.0001317,98.0448,238.1065,100.0937,260.0470,0,U,40021,999,65722,.10572E-2,.111371E-2,0
NANOSATC-BR1,2014-033Q,2026-06-26T08:27:00.123264,15.31739274,.0005038,98.0721,210.5531,140.2235,219.9374,0,U,40024,999,65538,.62707E-3,.19164E-3,0
QB50P1,2014-033R,2026-06-26T05:52:29.444736,15.18390211,.0008742,98.0964,189.0261,183.1826,176.9352,0,U,40025,999,65440,.4834E-3,.9878E-4,0
QB50P2,2014-033Y,2026-06-26T17:48:07.689024,15.15275348,.000882,98.0751,175.2171,135.1022,225.0923,0,U,40032,999,65411,.39703E-3,.7405E-4,0
PERSEUS-M2,2014-033AD,2026-06-26T18:21:10.109376,14.95543194,.0009989,97.9972,128.5001,269.6686,90.3390,0,U,40037,999,65221,.17351E-3,.1864E-4,0
